<?xml version="1.0" encoding="UTF-8"?>
<gpx version="1.1" creator="Unterkunftsrecherche Turracher Hoehe" xmlns="http://www.topografix.com/GPX/1/1">
<metadata><name>Turracher Höhe – Unterkünfte Osterferien 2027</name>
<desc>8 Personen, Anreise 20.03.2027, ab 5 Nächte. Stand 13.09.2026.</desc></metadata>
<wpt lat="46.933243" lon="13.869593">
  <name>Ibex panorama Lodge</name>
  <desc>Erfüllt alle Kernkriterien | Typ: Lodge | Adresse: 8864 Turracher Höhe | Belegung: max. 10 Personen, 4 Schlafzimmer, 4 Bäder | 7 Nächte: 3.780,05 €  (68 € je Person und Nacht) | 5 Nächte: 2.874,04 € | Bewertung: 9,1 aus 15 (Booking.com) | 4 Schlafzimmer und 4 Bäder – bestes Verhältnis Bäder je Person im Feld. Wenige Bewertungen. | Angebot: https://www.booking.com/hotel/at/ibex-lodge-turracher-hohe.html</desc>
  <link href="https://www.booking.com/hotel/at/ibex-lodge-turracher-hohe.html"><text>Angebot</text></link>
  <sym>Lodging</sym><type>Unterkunft</type></wpt>
<wpt lat="46.928641" lon="13.870886">
  <name>Zirbenwald Lodge</name>
  <desc>Erfüllt alle Kernkriterien | Typ: Lodge | Adresse: Barbarasiedlung 200 8864 Turracher Höhe | Belegung: max. 12 Personen, 4 Schlafzimmer, 4 Bäder | 7 Nächte: 3.822,50 €  (68 € je Person und Nacht) | Bewertung: 9,3 aus 16 (Booking.com) | 4 Bäder, Sauna, Wellnessbereich, Spielzimmer, Skiverleih und Skipass-Verkauf im Haus. | Angebot: https://www.booking.com/hotel/at/zirbenwald-lodge.html</desc>
  <link href="https://www.booking.com/hotel/at/zirbenwald-lodge.html"><text>Angebot</text></link>
  <sym>Lodging</sym><type>Unterkunft</type></wpt>
<wpt lat="46.927799" lon="13.863705">
  <name>Naturchalets Turracher Höhe by ALPS RESORTS</name>
  <desc>Erfüllt alle Kernkriterien | Typ: Chalet | Adresse: Turracherhöhe 271 8864 Turracher Höhe | Belegung: max. 8 Personen, 4 Schlafzimmer, 2 Bäder | 7 Nächte: 3.846,76 €  (69 € je Person und Nacht) | 5 Nächte: 2.862,68 € | Kaution: 500 € | Bewertung: 9,2 aus 309 (Booking.com) | Telefon: +43 3537 2005050 | Passt exakt auf 8 Personen, kein Puffer. Mit 309 Bewertungen die belastbarste Datenlage im Feld. | Angebot: https://www.booking.com/hotel/at/naturchalets-turracher-hohe-by-alps-resorts.html | Direkt: https://alps-resorts.com/urlaubsresorts/details/naturchalets-turracher-hoehe</desc>
  <link href="https://www.booking.com/hotel/at/naturchalets-turracher-hohe-by-alps-resorts.html"><text>Angebot</text></link>
  <sym>Lodging</sym><type>Unterkunft</type></wpt>
<wpt lat="46.926220" lon="13.869537">
  <name>Alpenpark Turrach by ALPS RESORTS</name>
  <desc>Erfüllt alle Kernkriterien | Typ: Chalet | Adresse: Maierbruggersiedlung 392 8864 Turracher Höhe | Belegung: max. 12 Personen, 5 Schlafzimmer, 2 Bäder | 7 Nächte: 3.868,91 €  (69 € je Person und Nacht) | 5 Nächte: 2.888,89 € | Kaution: 350 € | Ortstaxe: 2,50 €/Nacht/Erwachsener | Bewertung: 8,7 aus 257 (Booking.com) | Telefon: +43 3537 2005050 | 5 Schlafzimmer bei nur 2 Bädern – viel Platz, aber morgens Engpass. | Angebot: https://www.booking.com/hotel/at/alpenpark-turrach.html | Direkt: https://www.alps-resorts.com/urlaubsresorts/details/alpenpark-turracher-hoehe</desc>
  <link href="https://www.booking.com/hotel/at/alpenpark-turrach.html"><text>Angebot</text></link>
  <sym>Lodging</sym><type>Unterkunft</type></wpt>
<wpt lat="46.909618" lon="13.879814">
  <name>Luxalps Turrach Alm Chalets Nr. 1–4 Grünsee</name>
  <desc>Erfüllt alle Kernkriterien | Typ: Chalet | Adresse: Turracherhöhe 175 9565 Turracher Höhe | Belegung: max. 8 Personen, 4 Schlafzimmer, 2 Bäder | 7 Nächte: 4.009,08 €  (72 € je Person und Nacht) | 5 Nächte: 2.972,20 € | Kaution: 200 € | Bewertung: 9,1 aus 91 (Booking.com) | Niedrigste Kaution im Feld. Lage am Grünsee, südlicher Ortsrand. | Angebot: https://www.booking.com/hotel/at/turrach-chalets-grunsee.html</desc>
  <link href="https://www.booking.com/hotel/at/turrach-chalets-grunsee.html"><text>Angebot</text></link>
  <sym>Lodging</sym><type>Unterkunft</type></wpt>
<wpt lat="46.926558" lon="13.869849">
  <name>Turrach Lodges by ALPS RESORTS</name>
  <desc>Erfüllt alle Kernkriterien | Typ: Lodge | Adresse: Barbarasiedlung 409 8864 Turracher Höhe | Belegung: max. 10 Personen, 3 Schlafzimmer, 2 Bäder | 5 Nächte: 2.542,84 € | Kaution: 350 € | Bewertung: 8,9 aus 333 (Booking.com) | Telefon: +43 3537 2005050 | ACHTUNG: Der Preis gilt für 5 Nächte (20.–25.03.2027). Für 8 Personen sind 7 Nächte laut Betreiber NICHT verfügbar. Günstigste der drei ALPS-Anlagen, aber nur 3 Schlafzimmer für 8 Personen. | Angebot: https://www.booking.com/hotel/at/turrach-lodges.html | Direkt: https://www.alps-resorts.com/urlaubsresorts/details/turrach-lodges</desc>
  <link href="https://www.booking.com/hotel/at/turrach-lodges.html"><text>Angebot</text></link>
  <sym>Lodging</sym><type>Unterkunft</type></wpt>
<wpt lat="46.914444" lon="13.875000">
  <name>Hollmann am Berg Ski-in Ski-out</name>
  <desc>Erfüllt alle Kernkriterien | Typ: Chalet | Adresse: Turracher Höhe 163–166 9565 Turracher Höhe | Belegung: max. 10 Personen, 4 Schlafzimmer, 2 Bäder | 7 Nächte: 5.608,50 €  (100 € je Person und Nacht) | Kaution: 800 € | Bewertung: 10,0 aus 5 (Booking.com) | Direkter Pistenzugang, Skiverleih und Minimarkt im Haus. Teuerstes Objekt der Auswahl, Kaution 800 €, nur 5 Bewertungen. | Angebot: https://www.booking.com/hotel/at/hollmann-am-berg.html</desc>
  <link href="https://www.booking.com/hotel/at/hollmann-am-berg.html"><text>Angebot</text></link>
  <sym>Lodging</sym><type>Unterkunft</type></wpt>
<wpt lat="46.930110" lon="13.866620">
  <name>Superior Chalet # 25 mit Sauna</name>
  <desc>Belegung unverifiziert | Typ: Chalet | Adresse: Turracher Höhe | 7 Nächte: 4.180,00 €  (75 € je Person und Nacht) | Bewertung: 9,3 aus 15 (Airbnb über Trivago) | Belegung und Zimmerzahl nicht verifiziert. | Angebot: https://www.trivago.de/de/lm/ganzes-haus-apartment-superior-chalet-25-mit-sauna-turracher-höhe</desc>
  <link href="https://www.trivago.de/de/lm/ganzes-haus-apartment-superior-chalet-25-mit-sauna-turracher-höhe"><text>Angebot</text></link>
  <sym>Lodging</sym><type>Unterkunft</type></wpt>
<wpt lat="46.930110" lon="13.866620">
  <name>Superior Chalet # 10 mit Sauna &amp; Hot Tub</name>
  <desc>Belegung unverifiziert | Typ: Chalet | Adresse: Turracher Höhe | 7 Nächte: 4.354,00 €  (78 € je Person und Nacht) | Bewertung: 9,5 aus 12 (Airbnb über Trivago) | Belegung nicht verifiziert. | Angebot: https://www.trivago.de/de/lm/ganzes-haus-apartment-superior-chalet-10-mit-sauna-hot-tub-turracher-höhe</desc>
  <link href="https://www.trivago.de/de/lm/ganzes-haus-apartment-superior-chalet-10-mit-sauna-hot-tub-turracher-höhe"><text>Angebot</text></link>
  <sym>Lodging</sym><type>Unterkunft</type></wpt>
<wpt lat="46.930110" lon="13.866620">
  <name>Superior Chalet # 15 mit Sauna &amp; Hot Tub</name>
  <desc>Belegung unverifiziert | Typ: Chalet | Adresse: Turracher Höhe | 7 Nächte: 4.354,00 €  (78 € je Person und Nacht) | Bewertung: 8,6 aus 5 (Airbnb über Trivago) | Belegung nicht verifiziert. | Angebot: https://www.trivago.de/de/lm/ganzes-haus-apartment-superior-chalet-15-mit-sauna-hot-tub-turracher-höhe</desc>
  <link href="https://www.trivago.de/de/lm/ganzes-haus-apartment-superior-chalet-15-mit-sauna-hot-tub-turracher-höhe"><text>Angebot</text></link>
  <sym>Lodging</sym><type>Unterkunft</type></wpt>
<wpt lat="46.926590" lon="13.867300">
  <name>Superior Chalet mit Sauna &amp; Hot Tub</name>
  <desc>Belegung unverifiziert | Typ: Chalet | Adresse: Turracher Höhe | 7 Nächte: 4.438,00 €  (79 € je Person und Nacht) | Bewertung: 9,6 aus 27 (Airbnb über Trivago) | Beste Bewertung der Superior-Chalet-Serie. | Angebot: https://www.trivago.de/de/lm/ganzes-haus-apartment-superior-chalet-mit-sauna-hot-tub-turracher-höhe</desc>
  <link href="https://www.trivago.de/de/lm/ganzes-haus-apartment-superior-chalet-mit-sauna-hot-tub-turracher-höhe"><text>Angebot</text></link>
  <sym>Lodging</sym><type>Unterkunft</type></wpt>
<wpt lat="46.926590" lon="13.867300">
  <name>Superior Chalet with Hot Tub</name>
  <desc>Belegung unverifiziert | Typ: Chalet | Adresse: Turracher Höhe | 7 Nächte: 4.050,00 €  (72 € je Person und Nacht) | Bewertung: 9,7 aus 8 (FeWo-direkt über Trivago) | Höchste Bewertung im gesamten Feld, aber nur 8 Rezensionen. | Angebot: https://www.trivago.de/de/lm/ganzes-haus-apartment-superior-chalet-with-hot-tub-turracher-höhe</desc>
  <link href="https://www.trivago.de/de/lm/ganzes-haus-apartment-superior-chalet-with-hot-tub-turracher-höhe"><text>Angebot</text></link>
  <sym>Lodging</sym><type>Unterkunft</type></wpt>
<wpt lat="46.926200" lon="13.871080">
  <name>Ski-in Ski-out Chalet with Sauna and Nice View</name>
  <desc>Belegung unverifiziert | Typ: Chalet | Adresse: Turracher Höhe | 7 Nächte: 3.761,00 €  (67 € je Person und Nacht) | Bewertung: 9,4 aus 10 (FeWo-direkt über Trivago) | Günstigstes Chalet mit guter Bewertung, Belegung unverifiziert. | Angebot: https://www.trivago.de/de/lm/ganzes-haus-apartment-ski-in-ski-out-chalet-with-sauna-and-nice-view-turracher-höhe</desc>
  <link href="https://www.trivago.de/de/lm/ganzes-haus-apartment-ski-in-ski-out-chalet-with-sauna-and-nice-view-turracher-höhe"><text>Angebot</text></link>
  <sym>Lodging</sym><type>Unterkunft</type></wpt>
<wpt lat="46.922950" lon="13.870100">
  <name>Lavish Chalet with Finnish Sauna</name>
  <desc>Belegung unverifiziert | Typ: Chalet | Adresse: Turracher Höhe | 7 Nächte: 3.449,00 €  (62 € je Person und Nacht) | Günstigster Chalet-Treffer im Ort überhaupt, aber ohne Bewertungen und ohne verifizierte Belegung. | Angebot: https://www.trivago.de/de/lm/ganzes-haus-apartment-lavish-chalet-with-finnish-sauna-turracher-höhe</desc>
  <link href="https://www.trivago.de/de/lm/ganzes-haus-apartment-lavish-chalet-with-finnish-sauna-turracher-höhe"><text>Angebot</text></link>
  <sym>Lodging</sym><type>Unterkunft</type></wpt>
<wpt lat="46.932232" lon="13.871620">
  <name>MarktlAlm Almhüttendorf</name>
  <desc>Belegung unverifiziert | Typ: Hüttendorf | Adresse: Marktlsiedlung 500 8864 Turracher Höhe | 7 Nächte: 6.787,00 €  (121 € je Person und Nacht) | Bewertung: 9,0 aus 68 (Booking.com) | Google: 4,5 (408) | Telefon: +43 4275 8411 | Hüttendorf mit Restaurant und kostenlosem Ski-Shuttle. Portalpreis vermutlich für mehrere Hütten. | Angebot: https://www.booking.com/searchresults.html?ss=Marktlalm+Turracher+H%C3%B6he | Direkt: https://www.marktlalm.at/</desc>
  <link href="https://www.booking.com/searchresults.html?ss=Marktlalm+Turracher+H%C3%B6he"><text>Angebot</text></link>
  <sym>Lodging</sym><type>Unterkunft</type></wpt>
<wpt lat="46.926380" lon="13.864360">
  <name>Relax Chalet Turracher Höhe</name>
  <desc>Erfüllt alle Kernkriterien | Typ: Chalet | Adresse: Turracher Höhe | 7 Nächte: 7.074,00 €  (126 € je Person und Nacht) | Teuerstes Einzelobjekt im Ort, keine Bewertungen. | Angebot: https://www.trivago.de/de/lm/ganzes-haus-apartment-relax-chalet-turracher-höhe</desc>
  <link href="https://www.trivago.de/de/lm/ganzes-haus-apartment-relax-chalet-turracher-höhe"><text>Angebot</text></link>
  <sym>Lodging</sym><type>Unterkunft</type></wpt>
<wpt lat="46.922521" lon="13.871657">
  <name>Alpin Peaks Lifestyle Aparthotel</name>
  <desc>Kriterium verfehlt | Typ: Aparthotel | Adresse: Jägerwirtsiedlung 82 8864 Turracher Höhe | Belegung: max. 8 Personen, 2 Schlafzimmer, 2 Bäder | 5 Nächte: 5.483,54 € | Google: 4,7 (167) | Telefon: +43 664 5212080 | Nur 2 Schlafzimmer für 8 Personen – erfüllt das Schlafzimmer-Kriterium nicht. | Angebot: https://www.booking.com/hotel/at/alpin-peaks.html | Direkt: https://alpinpeaks.at/</desc>
  <link href="https://www.booking.com/hotel/at/alpin-peaks.html"><text>Angebot</text></link>
  <sym>Lodging</sym><type>Unterkunft</type></wpt>
<wpt lat="46.927226" lon="13.869601">
  <name>Idyllische Zirbenholz Alpin Hütte</name>
  <desc>Kriterium verfehlt | Typ: Almhütte | Adresse: Turracherhöhe 138 8864 Turracher Höhe | Belegung: max. 8 Personen, 3 Schlafzimmer, 1 Bäder | 7 Nächte: 4.174,75 €  (75 € je Person und Nacht) | Bewertung: 8,2 aus 6 (Booking.com) | Nur 1 Bad für 8 Personen. | Angebot: https://www.booking.com/hotel/at/idilische-zirbenholz-alpin-hutte-nahe-skipiste.html</desc>
  <link href="https://www.booking.com/hotel/at/idilische-zirbenholz-alpin-hutte-nahe-skipiste.html"><text>Angebot</text></link>
  <sym>Lodging</sym><type>Unterkunft</type></wpt>
<wpt lat="46.909427" lon="13.878694">
  <name>Chalet in Turracher Höhe with Ski Slope Access</name>
  <desc>Kriterium verfehlt | Typ: Chalet | Adresse: 9565 Turracher Höhe | Belegung: max. 8 Personen, 3 Schlafzimmer, 1 Bäder | 7 Nächte: 3.859,23 €  (69 € je Person und Nacht) | 5 Nächte: 2.866,30 € | Bewertung: 8,8 aus 5 (Booking.com) | Nur 1 Bad, keine Waschmaschine. | Angebot: https://www.booking.com/hotel/at/alpine-chalet-with-sauna-panoramic-view.html</desc>
  <link href="https://www.booking.com/hotel/at/alpine-chalet-with-sauna-panoramic-view.html"><text>Angebot</text></link>
  <sym>Lodging</sym><type>Unterkunft</type></wpt>
<wpt lat="46.913963" lon="13.873101">
  <name>Bergheim Schmidt Ski-In Ski-Out Appartements</name>
  <desc>Zwei Einheiten nötig | Typ: Appartement | Adresse: Turracher Höhe 30 9565 Turracher Höhe | Belegung: max. 6 Personen, 2 Schlafzimmer, 1 Bäder | 7 Nächte: 2.834,50 €  (51 € je Person und Nacht) | 5 Nächte: 2.162,50 € | Bewertung: 9,1 aus 91 (Booking.com) | Größte Einheit fasst 6 Personen. Für 8 sind zwei Einheiten nötig. Direkter Pistenzugang, Skischule und Spielgeräte. | Angebot: https://www.booking.com/hotel/at/almhutte-schmidt.html</desc>
  <link href="https://www.booking.com/hotel/at/almhutte-schmidt.html"><text>Angebot</text></link>
  <sym>Lodging</sym><type>Unterkunft</type></wpt>
<wpt lat="46.918345" lon="13.873392">
  <name>Appartementhaus Turracher Höhe</name>
  <desc>Zwei Einheiten nötig | Typ: Appartementhaus | Adresse: Turracherhöhe 218 8864 Turracher Höhe | Belegung: max. 6 Personen, 2 Schlafzimmer, 1 Bäder | 7 Nächte: 3.872,50 €  (69 € je Person und Nacht) | Bewertung: 9,3 aus 20 (Booking.com) | Zwei Einheiten nötig. Achtung: Strom nach Verbrauch mit 0,25 €/kWh – Kostenrisiko im Winter. | Angebot: https://www.booking.com/hotel/at/appartementhaus-turracher-hohe.html</desc>
  <link href="https://www.booking.com/hotel/at/appartementhaus-turracher-hohe.html"><text>Angebot</text></link>
  <sym>Lodging</sym><type>Unterkunft</type></wpt>
<wpt lat="46.922945" lon="13.872113">
  <name>Apparthotel SILBERSEE</name>
  <desc>Zwei Einheiten nötig | Typ: Aparthotel | Adresse: Nr. 344 8864 Turracher Höhe | Belegung: max. 6 Personen, 2 Schlafzimmer, 1 Bäder | 5 Nächte: 3.558,00 € | Bewertung: 9,5 aus 259 (Booking.com) | Sehr gut bewertet, direkter Pistenzugang, Dampfbad, Indoorspielbereich. Zwei Einheiten nötig. 60 € Gebühr bei Anreise nach 22 Uhr. | Angebot: https://www.booking.com/hotel/at/apparthotel-silbersee.html</desc>
  <link href="https://www.booking.com/hotel/at/apparthotel-silbersee.html"><text>Angebot</text></link>
  <sym>Lodging</sym><type>Unterkunft</type></wpt>
<wpt lat="46.916166" lon="13.873203">
  <name>Panorama Hotel Turracher Höhe</name>
  <desc>Kriterium verfehlt | Typ: Hotel | Adresse: Turracher Höhe 24 9565 Turracher Höhe | Belegung: max. 4 Personen, 1 Schlafzimmer, 1 Bäder | 5 Nächte: 5.360,86 € | Hotel mit Hallenbad, Wasserrutsche, Kinderprogramm und Halbpension. Für 8 Personen mindestens 2 Zimmer. | Angebot: https://www.booking.com/hotel/at/panorama-turracher-haphe.html</desc>
  <link href="https://www.booking.com/hotel/at/panorama-turracher-haphe.html"><text>Angebot</text></link>
  <sym>Lodging</sym><type>Unterkunft</type></wpt>
<wpt lat="46.927300" lon="13.869800">
  <name>Alpin-Hütten auf der Turracherhöhe</name>
  <desc>Nur über Kartensuche | Typ: Almhütte | Adresse: Turracherhöhe 141 9565 Turracher Höhe | Google: 4,6 (46) | Telefon: +43 664 8229000 | Auf keinem Portal gelistet. Nur direkt buchbar. | ACHTUNG Lage geschätzt, nicht verifiziert. Basis: Nachbarschaft zu Turracherhöhe 138 (46,92723 / 13,86960) | Angebot: http://www.alpinchalets.at/</desc>
  <link href="http://www.alpinchalets.at/"><text>Angebot</text></link>
  <sym>Lodging</sym><type>Unterkunft</type></wpt>
<wpt lat="46.926600" lon="13.869900">
  <name>Turracher Zirbenlodges</name>
  <desc>Nur über Kartensuche | Typ: Lodge | Adresse: Barbarasiedlung 406/411 8864 Turracher Höhe | Google: 4,7 (16) | Telefon: +49 40 399098721 | Auf keinem Portal gelistet. Deutsche Kontaktnummer. | ACHTUNG Lage geschätzt, nicht verifiziert. Basis: Nachbarschaft zu Barbarasiedlung 409 (46,92656 / 13,86985) | Angebot: https://www.turracher-zirbenlodges.at/</desc>
  <link href="https://www.turracher-zirbenlodges.at/"><text>Angebot</text></link>
  <sym>Lodging</sym><type>Unterkunft</type></wpt>
<wpt lat="46.909600" lon="13.879800">
  <name>Chalet Kornock</name>
  <desc>Nur über Kartensuche | Typ: Chalet | Adresse: Turracherhöhe 177 Turracher Höhe | Google: 4,7 (3) | Auf keinem Portal gelistet. Sehr wenige Bewertungen. | ACHTUNG Lage geschätzt, nicht verifiziert. Basis: Nachbarschaft zu Turracherhöhe 175 (46,90962 / 13,87981) | Angebot: http://chalet-kornock.com/</desc>
  <link href="http://chalet-kornock.com/"><text>Angebot</text></link>
  <sym>Lodging</sym><type>Unterkunft</type></wpt>
<wpt lat="46.927400" lon="13.870300">
  <name>BärenHütte</name>
  <desc>Nur über Kartensuche | Typ: Almhütte | Adresse: Barbarasiedlung 324 8864 Turracher Höhe | Google: 4,6 (16) | Telefon: +31 181 418809 | Auf keinem Portal gelistet. Niederländische Kontaktnummer, vermutlich private Vermietung. | ACHTUNG Lage geschätzt, nicht verifiziert. Basis: zwischen Barbarasiedlung 200 und 409 | Angebot: https://www.baerenhutte.com/</desc>
  <link href="https://www.baerenhutte.com/"><text>Angebot</text></link>
  <sym>Lodging</sym><type>Unterkunft</type></wpt>
<wpt lat="46.926300" lon="13.869500">
  <name>Mountain lodge Chalet-Turrach</name>
  <desc>Nur über Kartensuche | Typ: Lodge | Adresse: Maierbruggersiedlung 361 8864 Turracher Höhe | Google: 4,6 (32) | Telefon: +31 6 51602589 | Auf keinem Portal gelistet. Niederländische Kontaktnummer. | ACHTUNG Lage geschätzt, nicht verifiziert. Basis: Nachbarschaft zu Maierbruggersiedlung 392 (46,92622 / 13,86954) | Angebot: https://www.chalet-turracherhoehe.at/</desc>
  <link href="https://www.chalet-turracherhoehe.at/"><text>Angebot</text></link>
  <sym>Lodging</sym><type>Unterkunft</type></wpt>
<wpt lat="46.925080" lon="13.865050">
  <name>Ferienhaus für bis zu 10 Personen mit private Spa</name>
  <desc>Belegung unverifiziert | Typ: Ferienhaus | Adresse: Predlitz-Turrach | Belegung: max. 10 Personen | 7 Nächte: 3.514,00 €  (63 € je Person und Nacht) | Bewertung: 8,9 aus 29 (Airbnb über Trivago) | 10 Personen zulässig, Zimmerzahl unverifiziert. Günstig für die Kapazität. | Angebot: https://www.trivago.de/de/lm/ganzes-haus-apartment-ferienhaus-für-bis-zu-10-personen-mit-private-spa-predlitz</desc>
  <link href="https://www.trivago.de/de/lm/ganzes-haus-apartment-ferienhaus-für-bis-zu-10-personen-mit-private-spa-predlitz"><text>Angebot</text></link>
  <sym>Lodging</sym><type>Unterkunft</type></wpt>
<wpt lat="46.925080" lon="13.865050">
  <name>Ferienhaus für bis zu 11 Personen mit private Spa</name>
  <desc>Belegung unverifiziert | Typ: Ferienhaus | Adresse: Predlitz-Turrach | Belegung: max. 11 Personen | 7 Nächte: 3.648,00 €  (65 € je Person und Nacht) | Bewertung: 9,0 aus 39 (Airbnb über Trivago) | 11 Personen zulässig – viel Puffer für 8 Gäste. | Angebot: https://www.trivago.de/de/lm/ganzes-haus-apartment-ferienhaus-für-bis-zu-11-personen-mit-private-spa-predlitz</desc>
  <link href="https://www.trivago.de/de/lm/ganzes-haus-apartment-ferienhaus-für-bis-zu-11-personen-mit-private-spa-predlitz"><text>Angebot</text></link>
  <sym>Lodging</sym><type>Unterkunft</type></wpt>
<wpt lat="46.933170" lon="13.869140">
  <name>Schöne und sehr luxuriöse Panoramalodge mit Sauna</name>
  <desc>Belegung unverifiziert | Typ: Lodge | Adresse: Predlitz-Turrach | 7 Nächte: 3.910,00 €  (70 € je Person und Nacht) | Bewertung: 9,7 aus 32 (Airbnb über Trivago) | Bewertung 9,7 bei 32 Rezensionen – die belastbarste Spitzenbewertung im Feld. | Angebot: https://www.trivago.de/de/lm/ganzes-haus-apartment-schöne-und-sehr-luxuriöse-panoramalodge-mit-saun-predlitz</desc>
  <link href="https://www.trivago.de/de/lm/ganzes-haus-apartment-schöne-und-sehr-luxuriöse-panoramalodge-mit-saun-predlitz"><text>Angebot</text></link>
  <sym>Lodging</sym><type>Unterkunft</type></wpt>
<wpt lat="46.933090" lon="13.869050">
  <name>Atemberaubende Luxus-Lodge mit Panoramablick</name>
  <desc>Erfüllt alle Kernkriterien | Typ: Lodge | Adresse: Predlitz-Turrach | 7 Nächte: 3.889,00 €  (69 € je Person und Nacht) | Bewertung: 9,3 aus 20 (Airbnb über Trivago) | Belegung unverifiziert. Geprüft als „Chalet Vista Lodge“ über Villa for You. | Angebot: https://www.trivago.de/de/lm/ganzes-haus-apartment-atemberaubende-luxus-lodge-mit-panoramablick-predlitz</desc>
  <link href="https://www.trivago.de/de/lm/ganzes-haus-apartment-atemberaubende-luxus-lodge-mit-panoramablick-predlitz"><text>Angebot</text></link>
  <sym>Lodging</sym><type>Unterkunft</type></wpt>
<wpt lat="46.933090" lon="13.869050">
  <name>Atemberaubende Luxus-Lodge am Turracher Höhe</name>
  <desc>Belegung unverifiziert | Typ: Lodge | Adresse: Predlitz-Turrach | 7 Nächte: 3.789,00 €  (68 € je Person und Nacht) | Bewertung: 9,1 aus 16 (Airbnb über Trivago) | Belegung unverifiziert. Nicht zu verwechseln mit der Schwester-Lodge „mit Panoramablick“, die geprüft wurde. | Angebot: https://www.trivago.de/de/lm/ganzes-haus-apartment-atemberaubende-luxus-lodge-am-turracher-höhe-predlitz</desc>
  <link href="https://www.trivago.de/de/lm/ganzes-haus-apartment-atemberaubende-luxus-lodge-am-turracher-höhe-predlitz"><text>Angebot</text></link>
  <sym>Lodging</sym><type>Unterkunft</type></wpt>
<wpt lat="46.928020" lon="13.870080">
  <name>Chalet mit Sauna und Whirlpool nahe Skipiste</name>
  <desc>Belegung unverifiziert | Typ: Chalet | Adresse: Predlitz-Turrach | 7 Nächte: 4.003,00 €  (71 € je Person und Nacht) | Bewertung: 8,8 aus 9 (Airbnb über Trivago) | Belegung unverifiziert. | Angebot: https://www.trivago.de/de/lm/ganzes-haus-apartment-chalet-mit-sauna-und-whirlpool-nahe-skipiste-predlitz</desc>
  <link href="https://www.trivago.de/de/lm/ganzes-haus-apartment-chalet-mit-sauna-und-whirlpool-nahe-skipiste-predlitz"><text>Angebot</text></link>
  <sym>Lodging</sym><type>Unterkunft</type></wpt>
<wpt lat="46.916780" lon="13.879720">
  <name>Meizeit Hüttendorf</name>
  <desc>Belegung unverifiziert | Typ: Hüttendorf | Adresse: Turracherhöhe 98 9565 Ebene Reichenau | 7 Nächte: 4.325,00 €  (77 € je Person und Nacht) | Bewertung: 8,6 aus 560 (Booking.com über Trivago) | Google: 4,2 (439) | Telefon: +43 664 5754189 | Google-Bewertung 4,2 fällt gegenüber Portalwert 8,6 deutlich ab – Diskrepanz prüfen. | Angebot: https://www.trivago.de/de/lm/ganzes-haus-apartment-meizeit-hüttendorf-ebene-reichenau | Direkt: http://www.meizeit.at/</desc>
  <link href="https://www.trivago.de/de/lm/ganzes-haus-apartment-meizeit-hüttendorf-ebene-reichenau"><text>Angebot</text></link>
  <sym>Lodging</sym><type>Unterkunft</type></wpt>
<wpt lat="46.860540" lon="13.838673">
  <name>Ferienhaus Vier Jahreszeiten</name>
  <desc>Ausweichregion | Typ: Ferienhaus | Adresse: Falkertsee 171 9564 Falkertsee / Reichenau | 7 Nächte: 1.637,00 €  (29 € je Person und Nacht) | Bewertung: 8,8 aus 22 (Booking.com) | Günstigstes Objekt der gesamten Recherche. Ohne Pistenanbindung Turracher Höhe. | Angebot: https://www.booking.com/hotel/at/ferienhaus-vier-jahreszeiten.html</desc>
  <link href="https://www.booking.com/hotel/at/ferienhaus-vier-jahreszeiten.html"><text>Angebot</text></link>
  <sym>Lodging</sym><type>Unterkunft</type></wpt>
<wpt lat="46.859997" lon="13.840972">
  <name>Gemütliches Almhaus auf 1800 m mit Sauna und Kamin</name>
  <desc>Ausweichregion | Typ: Almhaus | Adresse: Falkertsee 117 9564 Falkertsee | 7 Nächte: 1.700,00 €  (30 € je Person und Nacht) | Bewertung: 9,1 aus 12 (Booking.com) | 1.800 m Höhenlage, Sauna, Kamin. Fahrzeit zur Turracher Höhe nicht verifiziert. | Angebot: https://www.booking.com/hotel/at/ferienhaus-natberger-hutte.html</desc>
  <link href="https://www.booking.com/hotel/at/ferienhaus-natberger-hutte.html"><text>Angebot</text></link>
  <sym>Lodging</sym><type>Unterkunft</type></wpt>
<wpt lat="46.815097" lon="13.811583">
  <name>Haus Kremser</name>
  <desc>Ausweichregion | Typ: Ferienhaus | Adresse: Koschatweg 4 und 6 9546 Bad Kleinkirchheim | 7 Nächte: 1.988,77 €  (36 € je Person und Nacht) | Bewertung: 9,1 aus 76 (Booking.com) | Eigenes Skigebiet Bad Kleinkirchheim vor der Tür. | Angebot: https://www.booking.com/hotel/at/haus-kremser.html</desc>
  <link href="https://www.booking.com/hotel/at/haus-kremser.html"><text>Angebot</text></link>
  <sym>Lodging</sym><type>Unterkunft</type></wpt>
<wpt lat="46.815087" lon="13.796221">
  <name>Residence Margerithenweg</name>
  <desc>Ausweichregion | Typ: Residence | Adresse: Margerithenweg 8 und 10 9546 Bad Kleinkirchheim | 7 Nächte: 2.237,50 €  (40 € je Person und Nacht) | Bewertung: 8,6 aus 42 (Booking.com) | Skischule und Skipass-Verkauf im Haus. | Angebot: https://www.booking.com/hotel/at/residence-margerithenweg.html</desc>
  <link href="https://www.booking.com/hotel/at/residence-margerithenweg.html"><text>Angebot</text></link>
  <sym>Lodging</sym><type>Unterkunft</type></wpt>
<wpt lat="46.820122" lon="13.770686">
  <name>Berghaus Traumblick</name>
  <desc>Ausweichregion | Typ: Ferienhaus | Adresse: Habichtweg 5 9546 Bad Kleinkirchheim | 7 Nächte: 2.302,50 €  (41 € je Person und Nacht) | Bewertung: 9,6 aus 85 (Booking.com) | Bewertung 9,6 bei 85 Rezensionen – bester Fallback nach Qualität. | Angebot: https://www.booking.com/hotel/at/berghaus-traumblick-bad-kleinkirchheim1.html</desc>
  <link href="https://www.booking.com/hotel/at/berghaus-traumblick-bad-kleinkirchheim1.html"><text>Angebot</text></link>
  <sym>Lodging</sym><type>Unterkunft</type></wpt>
<wpt lat="46.814618" lon="13.785786">
  <name>Nordic Lodge – Suite Hotel</name>
  <desc>Ausweichregion | Typ: Suite-Hotel | Adresse: Thermenstraße 21 9546 Bad Kleinkirchheim | 7 Nächte: 3.683,50 €  (66 € je Person und Nacht) | Bewertung: 9,0 aus 106 (Booking.com) | Hallenbad, Spa, an der Therme. | Angebot: https://www.booking.com/hotel/at/landhaus-coloseus.html</desc>
  <link href="https://www.booking.com/hotel/at/landhaus-coloseus.html"><text>Angebot</text></link>
  <sym>Lodging</sym><type>Unterkunft</type></wpt>
<wpt lat="46.814438" lon="13.768279">
  <name>Villa Bostele, 5 SZ, Indoor-Pool, 2 Saunen</name>
  <desc>Ausweichregion | Typ: Villa | Adresse: Obertscherner Weg 35 9546 Bad Kleinkirchheim | 7 Nächte: 7.326,33 €  (131 € je Person und Nacht) | Bewertung: 9,8 aus 15 (Booking.com) | Bestbewertetes Objekt der gesamten Recherche (9,8). Eigener Innenpool und zwei Saunen, entsprechend teuer. | Angebot: https://www.booking.com/hotel/at/villa-bostele-with-seven-bedrooms-indoor-pool-and-two-saunas.html</desc>
  <link href="https://www.booking.com/hotel/at/villa-bostele-with-seven-bedrooms-indoor-pool-and-two-saunas.html"><text>Angebot</text></link>
  <sym>Lodging</sym><type>Unterkunft</type></wpt>
<wpt lat="46.918500" lon="13.873500">
  <name>Appartementhaus Lerchbaumer – Zirbenhütte</name>
  <desc>Kriterium verfehlt | Typ: siehe Prüfbericht | Adresse: Turracher Höhe 90 Turracher Höhe | ACHTUNG Lage geschätzt, nicht verifiziert. Basis: Ortsmitte Turracher Höhe (Hausnummer nicht aufgelöst) | Angebot: https://turrach-ferienhaus.at/buchen/?nd_booking_archive_form_date_range_from=03%2F20%2F2027&amp;nd_booking_archive_form_date_range_to=03%2F27%2F2027&amp;nd_booking_archive_form_guests=8</desc>
  <link href="https://turrach-ferienhaus.at/buchen/?nd_booking_archive_form_date_range_from=03%2F20%2F2027&amp;nd_booking_archive_form_date_range_to=03%2F27%2F2027&amp;nd_booking_archive_form_guests=8"><text>Angebot</text></link>
  <sym>Lodging</sym><type>Unterkunft</type></wpt>
<wpt lat="46.927600" lon="13.870400">
  <name>Chalet Golden Eagle</name>
  <desc>Im Zeitraum belegt | Typ: siehe Prüfbericht | Adresse: Barbarasiedlung 339, 8864 Turracher Höhe Turracher Höhe | ACHTUNG Lage geschätzt, nicht verifiziert. Basis: Mittelpunkt der Barbarasiedlung (Hausnummer nicht aufgelöst) | Angebot: Direktanfrage</desc>
  <link href="Direktanfrage"><text>Angebot</text></link>
  <sym>Lodging</sym><type>Unterkunft</type></wpt>
<wpt lat="46.932200" lon="13.871600">
  <name>Chalet Claassen</name>
  <desc>Erfüllt alle Kernkriterien | Typ: siehe Prüfbericht | Adresse: Marktlsiedlung 347, 8864 Turrach Turracher Höhe | ACHTUNG Lage geschätzt, nicht verifiziert. Basis: Mittelpunkt der Marktlsiedlung (Hausnummer nicht aufgelöst) | Angebot: Guenstigste</desc>
  <link href="Guenstigste"><text>Angebot</text></link>
  <sym>Lodging</sym><type>Unterkunft</type></wpt>
<wpt lat="46.926200" lon="13.869500">
  <name>Alpenpark Turracher Höhe by ALPS RESORTS</name>
  <desc>Erfüllt alle Kernkriterien | Typ: siehe Prüfbericht | Adresse: Turracher Höhe | ACHTUNG Lage geschätzt, nicht verifiziert. Basis: Mittelpunkt der Alpenpark (Hausnummer nicht aufgelöst) | Angebot: Direkt</desc>
  <link href="Direkt"><text>Angebot</text></link>
  <sym>Lodging</sym><type>Unterkunft</type></wpt>
<wpt lat="46.926200" lon="13.869500">
  <name>Wildererhütte Turracher Höhe</name>
  <desc>Kriterium verfehlt | Typ: siehe Prüfbericht | Adresse: Maierbruggersiedlung 142 a-c Turracher Höhe | ACHTUNG Lage geschätzt, nicht verifiziert. Basis: Mittelpunkt der Maierbruggersiedlung (Hausnummer nicht aufgelöst) | Angebot: Keine</desc>
  <link href="Keine"><text>Angebot</text></link>
  <sym>Lodging</sym><type>Unterkunft</type></wpt>
<wpt lat="46.918500" lon="13.873500">
  <name>Hotel Turracherhof</name>
  <desc>Kriterium verfehlt | Typ: siehe Prüfbericht | Adresse: Turracherhöhe 106 Turracher Höhe | ACHTUNG Lage geschätzt, nicht verifiziert. Basis: Ortsmitte Turracher Höhe (Hausnummer nicht aufgelöst) | Angebot: https://www.booking.com/hotel/at/turracherhof.html?checkin=2027-03-20&amp;checkout=2027-03-27&amp;no_rooms=3&amp;group_adults=5&amp;group_children=3&amp;age=8&amp;age=10&amp;age=12&amp;selected_currency=EUR</desc>
  <link href="https://www.booking.com/hotel/at/turracherhof.html?checkin=2027-03-20&amp;checkout=2027-03-27&amp;no_rooms=3&amp;group_adults=5&amp;group_children=3&amp;age=8&amp;age=10&amp;age=12&amp;selected_currency=EUR"><text>Angebot</text></link>
  <sym>Lodging</sym><type>Unterkunft</type></wpt>
<wpt lat="46.918500" lon="13.873500">
  <name>Genießer-Schlosshotel Seewirt ****</name>
  <desc>Nur auf Anfrage | Typ: siehe Prüfbericht | Adresse: Turracher Höhe 33, 8864 Turracher Höhe Turracher Höhe | ACHTUNG Lage geschätzt, nicht verifiziert. Basis: Ortsmitte Turracher Höhe (Hausnummer nicht aufgelöst) | Angebot: Direktbuchung</desc>
  <link href="Direktbuchung"><text>Angebot</text></link>
  <sym>Lodging</sym><type>Unterkunft</type></wpt>
<wpt lat="46.918500" lon="13.873500">
  <name>Hotel Kornock ****</name>
  <desc>Nur auf Anfrage | Typ: siehe Prüfbericht | Adresse: Turracher Höhe 120, 8864 Turracher Höhe Turracher Höhe | ACHTUNG Lage geschätzt, nicht verifiziert. Basis: Ortsmitte Turracher Höhe (Hausnummer nicht aufgelöst) | Angebot: https://booking.kornock.at/websLINE-ABM/Homepage/Booking</desc>
  <link href="https://booking.kornock.at/websLINE-ABM/Homepage/Booking"><text>Angebot</text></link>
  <sym>Lodging</sym><type>Unterkunft</type></wpt>
<wpt lat="46.926200" lon="13.869500">
  <name>WaldChalet</name>
  <desc>Nur über Kartensuche | Typ: Ferienhaus / Chalet (freistehend) | Adresse: Alpenpark Turracher Höhe 09 (Familie Lander), 8864 Turracherhöhe Turracher Höhe | Telefon: +31 6 22075556 | 4+ Schlafzimmer laut Anbieter. NEU. Freistehendes Chalet, Baujahr 2011, im Alpenpark Turracher Höhe zwischen Zirben gelegen, 350 m zur Piste, eigene Rezeption mit Ski- und Skischuhkeller. Für 8 Personen deutlich ausreichend (bis 10 Pers). W | ACHTUNG Lage geschätzt, nicht verifiziert. Basis: Mittelpunkt der Alpenpark (Hausnummer nicht aufgelöst) | Angebot: http://www.waldchalet.com/</desc>
  <link href="http://www.waldchalet.com/"><text>Angebot</text></link>
  <sym>Lodging</sym><type>Unterkunft</type></wpt>
<wpt lat="46.926200" lon="13.869500">
  <name>Peak Existence Chalet (Superior Chalet 31)</name>
  <desc>Nur über Kartensuche | Typ: Luxus-Chalet | Adresse: Maierbruggersiedlung 531, 8864 Turrach Turracher Höhe | Telefon: +386 31 448 905 | 4+ Schlafzimmer laut Anbieter. NEU. Exakte Passung auf 8 Personen. 135 m² auf zwei Ebenen, zwei Balkone, private finnische Sauna, Hot Tub auf der Terrasse (ohne Whirlfunktion), Skirückfahrt direkt zum Chalet von Kornockbahn, Schaffalmbahn o | ACHTUNG Lage geschätzt, nicht verifiziert. Basis: Mittelpunkt der Maierbruggersiedlung (Hausnummer nicht aufgelöst) | Angebot: https://peakexistencechalet.com/</desc>
  <link href="https://peakexistencechalet.com/"><text>Angebot</text></link>
  <sym>Lodging</sym><type>Unterkunft</type></wpt>
<wpt lat="46.933000" lon="13.869000">
  <name>JuJa Lodge</name>
  <desc>Nur über Kartensuche | Typ: Lodge / Chalet (Panorama-Lodge) | Adresse: Steinturrach 438/2, 8864 Turracherhöhe Turracher Höhe | Telefon: +31 6 53452324 | 4+ Schlafzimmer laut Anbieter. NEU. Sehr gute Passung: 8+1 Personen, 160 m². Eine von sechs neuen Panorama-Lodges, 1.700 m Höhe. Sauna- und Wellnessbereich, 2 überdachte Terrassen, Wohnzimmer mit Holzofen, Küche mit Backofen/Mikrowelle/Nesp | ACHTUNG Lage geschätzt, nicht verifiziert. Basis: Mittelpunkt der Steinturrach (Hausnummer nicht aufgelöst) | Angebot: http://www.jujalodge.nl/</desc>
  <link href="http://www.jujalodge.nl/"><text>Angebot</text></link>
  <sym>Lodging</sym><type>Unterkunft</type></wpt>
<wpt lat="46.933000" lon="13.869000">
  <name>Vista Lodge</name>
  <desc>Nur über Kartensuche | Typ: Lodge / Chalet (Doppelhaushälfte) | Adresse: Steinturrach 439 Turracher Höhe | Telefon: nicht ermittelbar (Kontakt über Website und villaforyou) | 4+ Schlafzimmer laut Anbieter. NEU. Neubau, fertiggestellt März 2022. 165 m², Zweifamilien-/Doppelhaushälften-Chalet in authentischem Alpine-Design mit Naturstein, Holz und Glas. Offener Kamin, voll ausgestattete Küche, Balkon nach Südosten | ACHTUNG Lage geschätzt, nicht verifiziert. Basis: Mittelpunkt der Steinturrach (Hausnummer nicht aufgelöst) | Angebot: http://www.vistalodge.nl/</desc>
  <link href="http://www.vistalodge.nl/"><text>Angebot</text></link>
  <sym>Lodging</sym><type>Unterkunft</type></wpt>
<wpt lat="46.918500" lon="13.873500">
  <name>Turracher Höhe Chalet Bergliebe</name>
  <desc>Nur über Kartensuche | Typ: Chalet | Adresse: Turracherhöhe 271, 8864 Turracherhöhe Turracher Höhe | Telefon: +43 676 443 12 45 | 4+ Schlafzimmer laut Anbieter. NEU. Sehr gute Passung für 5 Erwachsene + 3 Kinder: Kapazität 8 Erwachsene + 2 Kinder. Sauna und Hot Tub, offene Küche, High-Speed-WLAN, virtuelle 3D-Tour auf der Website. Wenige hundert Meter von der Rezeptio | ACHTUNG Lage geschätzt, nicht verifiziert. Basis: Ortsmitte Turracher Höhe (Hausnummer nicht aufgelöst) | Angebot: https://www.turracherhoehe-chalet.at/ (deutsch: https://de.turracherhoehe-chalet.at/)</desc>
  <link href="https://www.turracherhoehe-chalet.at/ (deutsch: https://de.turracherhoehe-chalet.at/)"><text>Angebot</text></link>
  <sym>Lodging</sym><type>Unterkunft</type></wpt>
<wpt lat="46.932200" lon="13.871600">
  <name>Ferien-Appartementhaus Lerchbaumer</name>
  <desc>Nur über Kartensuche | Typ: Ferienhaus / Almchalet / Appartementhaus (Pr | Adresse: Marktlsiedlung 90, 8864 Turrach Turracher Höhe | Telefon: +43 660 7708807 (Büro Wien: +43 1 3104440) | 4+ Schlafzimmer laut Anbieter. NEU. Sehr gut passend für 5 Erwachsene + 3 Kinder: 4 Schlafzimmer, Privatsauna, eigener Carport (auch bei starkem Schneefall erreichbar), 2 SAT-TV, privates WLAN. 3D-Rundgang verfügbar. E-Mail lerchbaumer@turr | ACHTUNG Lage geschätzt, nicht verifiziert. Basis: Mittelpunkt der Marktlsiedlung (Hausnummer nicht aufgelöst) | Angebot: https://turrach-ferienhaus.at/</desc>
  <link href="https://turrach-ferienhaus.at/"><text>Angebot</text></link>
  <sym>Lodging</sym><type>Unterkunft</type></wpt>
</gpx>